SL-14 R/B               
1 16792U 86046B   26027.72028877  .00000800  00000+0  89454-4 0  9998
2 16792  82.4832 118.8929 0023231   7.2762 352.8786 14.85547818120325
SL-14 R/B               
1 16882U 86055B   26027.80254431  .00001006  00000+0  11308-3 0  9995
2 16882  82.5223 165.0898 0020338 106.3580  51.0975 14.85594724113297
AJISAI (EGS)            
1 16908U 86061A   26027.82866933 -.00000073  00000+0  16993-3 0  9998
2 16908  50.0062 218.9959 0011276 181.9405 199.9267 12.44515288462912
COSMOS 1812             
1 17295U 87003A   26027.85935063  .00230806  00000+0  79234-3 0  9994
2 17295  82.4796 241.6446 0000983  37.7514 322.3827 15.89078484137941
SL-14 R/B               
1 17567U 87024B   26027.76861300  .00000857  00000+0  94868-4 0  9993
2 17567  82.5304 131.2183 0019172  40.0767 320.1859 14.86089167 82056
COSMOS 1833             
1 17589U 87027A   26027.51918980  .00000211  00000+0  13850-3 0  9995
2 17589  70.9196  52.5475 0024617 269.1865  90.6435 14.13052162  4500
SL-16 R/B               
1 17590U 87027B   26027.68265447  .00000232  00000+0  13889-3 0  9993
2 17590  71.0039   2.9040 0005803 208.2647 151.8163 14.17160741  9538
SL-14 R/B               
1 17912U 87038B   26027.80985244  .00000959  00000+0  10852-3 0  9994
2 17912  82.5038 335.3065 0017936 302.7174  57.2312 14.85323477 73164
COSMOS 1844             
1 17973U 87041A   26027.66852662 -.00000081  00000+0 -16788-4 0  9999
2 17973  70.8989 120.7027 0028493  83.7455 276.6911 14.14534794997781
SL-14 R/B               
1 18153U 87055B   26027.45705756  .00000831  00000+0  92967-4 0  9997
2 18153  82.4979  27.8909 0021500 146.2473 214.0117 14.85576872 63816
COSMOS 1867             
1 18187U 87060A   26027.78174836  .00000025  00000+0  46937-4 0  9996
2 18187  65.0102  61.2659 0013978 275.5273  84.4217 14.31495916 14081
SL-14 R/B               
1 18749U 88001B   26027.04543046  .00000703  00000+0  78463-4 0  9990
2 18749  82.5103 234.5331 0018603  20.6705 339.5260 14.85477712 35843
